TLE2=2 20261  82.6015  96.3111 1186722 263.9527  82.5401 12.59574590668363
TLE2=2 19257  74.0451  89.2191 0021529 266.8415 103.8841 14.38924207978412
TLE2=2 19650  70.9985 125.0362 0014843 342.0732  17.9866 14.16155342928672
TLE2=2 19046  97.5212  64.4496 0025613 186.1300 173.9626 15.20041700 54011
TLE2=2 19573  82.5161 105.2881 0013124 123.2058 237.0442 15.28227119 21291
TLE2=2 19120  71.0155  42.0063 0023376 316.2353  43.6919 14.19617709960162
TLE2=2 20262  82.5967 165.1079 1230843 155.9864 210.4049 12.50506537661725
TLE2=2 20443  98.3057 141.4705 0010633 161.1222 199.0363 14.39878118894605
TLE2=2 19210  82.5081 145.6043 0012642  83.3758 276.8920 15.28719034 39704
TLE2=2 20453  35.6029  95.5963 0080677  10.6768 349.5661 15.57484619928018
TLE2=2 20323  97.0695 286.5684 0070707  83.5213 277.4030 14.50673176897535
TLE2=2 19574  82.5330  30.2380 0020701   1.1151 112.9364 14.85671007  2887
